SAUDISAT 1C             
1 27607U 02058C   16022.11738787  .00000353  00000-0  70637-4 0  9998
2 27607  64.5541 250.1630 0079657 246.5739 112.6973 14.75027326703574
SAUDISAT 2              
1 28371U 04025F   16022.51213632  .00000119  00000-0  38319-4 0  9995
2 28371  98.0611 347.4542 0026792 123.2929 237.0817 14.54140956613479
UNISAT 3                
1 28373U 04025H   16021.43298797  .00000269  00000-0  87084-4 0  9991
2 28373  98.2797 328.3378 0068618 328.0309  31.6728 14.45233081609839
SAUDISAT 3              
1 31118U 07012B   16022.47026671  .00000079  00000-0  21153-4 0  9990
2 31118  97.7227  37.9014 0016480 105.7271 254.5762 14.68964179469887
